start=new Date('2022-10-03T00:00:00.000Z').valueOf();
sats=[{"CENTER_NAME":"EARTH","MEAN_ANOMALY":"291.9516","REV_AT_EPOCH":"7793","PERIAPSIS":"546.145","GP_ID":"214015469","MEAN_MOTION":"15.06402912","INCLINATION":"53.0532","CLASSIFICATION_TYPE":"U","MEAN_MOTION_DOT":"0.00001698","ECCENTRICITY":"0.00015300","BSTAR":"0.00013288000000","ELEMENT_SET_NO":"999","EPHEMERIS_TYPE":"0","EPOCH":"2022-10-02T02:45:24.920064","FILE":"3589474","TLE_LINE1":"1 48353U 21038A   22275.11487176  .00001698  00000-0  13288-3 0  9999","ARG_OF_PERICENTER":"68.1635","TIME_SYSTEM":"UTC","LAUNCH_DATE":"2021-05-04","MEAN_MOTION_DDOT":"0.0000000000000","DECAY_DATE":null,"MEAN_ELEMENT_THEORY":"SGP4","SEMIMAJOR_AXIS":"6925.340","PERIOD":"95.592","TLE_LINE2":"2 48353  53.0532 233.6312 0001530  68.1635 291.9516 15.06402912 77930","OBJECT_ID":"2021-038A","SITE":"AFETR","REF_FRAME":"TEME","OBJECT_NAME":"STARLINK-2613","RA_OF_ASC_NODE":"233.6312","COUNTRY_CODE":"US","RCS_SIZE":"LARGE","APOAPSIS":"548.264","NORAD_CAT_ID":"48353","OBJECT_TYPE":"PAYLOAD"},{"CENTER_NAME":"EARTH","MEAN_ANOMALY":"286.3751","REV_AT_EPOCH":"7803","PERIAPSIS":"546.267","GP_ID":"214047761","CLASSIFICATION_TYPE":"U","MEAN_MOTION_DOT":"0.00000281","INCLINATION":"53.0534","MEAN_MOTION":"15.06402283","ECCENTRICITY":"0.00013560","EPHEMERIS_TYPE":"0","ELEMENT_SET_NO":"999","EPOCH":"2022-10-02T18:35:29.995008","BSTAR":"0.00003774500000","TLE_LINE1":"1 48354U 21038B   22275.77465272  .00000281  00000-0  37745-4 0  9997","ARG_OF_PERICENTER":"73.7387","FILE":"3589751","LAUNCH_DATE":"2021-05-04","TIME_SYSTEM":"UTC","SEMIMAJOR_AXIS":"6925.342","MEAN_ELEMENT_THEORY":"SGP4","MEAN_MOTION_DDOT":"0.0000000000000","DECAY_DATE":null,"TLE_LINE2":"2 48354  53.0534 230.6731 0001356  73.7387 286.3751 15.06402283 78039","PERIOD":"95.592","SITE":"AFETR","REF_FRAME":"TEME","OBJECT_ID":"2021-038B","RCS_SIZE":"LARGE","APOAPSIS":"548.146","OBJECT_NAME":"STARLINK-2674","RA_OF_ASC_NODE":"230.6731","COUNTRY_CODE":"US","NORAD_CAT_ID":"48354","OBJECT_TYPE":"PAYLOAD"},{"COUNTRY_CODE":"US","OBJECT_NAME":"STARLINK-2635","RA_OF_ASC_NODE":"231.5791","APOAPSIS":"548.455","RCS_SIZE":"LARGE","OBJECT_TYPE":"PAYLOAD","NORAD_CAT_ID":"48355","DECAY_DATE":null,"MEAN_MOTION_DDOT":"0.0000000000000","MEAN_ELEMENT_THEORY":"SGP4","SEMIMAJOR_AXIS":"6925.386","TIME_SYSTEM":"UTC","LAUNCH_DATE":"2021-05-04","OBJECT_ID":"2021-038C","REF_FRAME":"TEME","SITE":"AFETR","PERIOD":"95.593","TLE_LINE2":"2 48355  53.0543 231.5791 0001739  60.3230 299.7932 15.06387835 78001","ECCENTRICITY":"0.00017390","MEAN_MOTION":"15.06387835","INCLINATION":"53.0543","MEAN_MOTION_DOT":"-0.00001347","CLASSIFICATION_TYPE":"U","FILE":"3589751","ARG_OF_PERICENTER":"60.3230","TLE_LINE1":"1 48355U 21038C   22275.57193192 -.00001347  00000-0 -71557-4 0  9990","BSTAR":"-0.00007155700000","EPHEMERIS_TYPE":"0","ELEMENT_SET_NO":"999","EPOCH":"2022-10-02T13:43:34.917888","PERIAPSIS":"546.047","REV_AT_EPOCH":"7800","MEAN_ANOMALY":"299.7932","CENTER_NAME":"EARTH","GP_ID":"214049008"},{"MEAN_ELEMENT_THEORY":"SGP4","SEMIMAJOR_AXIS":"6925.338","MEAN_MOTION_DDOT":"0.0000000000000","DECAY_DATE":null,"LAUNCH_DATE":"2021-05-04","TIME_SYSTEM":"UTC","SITE":"AFETR","REF_FRAME":"TEME","OBJECT_ID":"2021-038D","TLE_LINE2":"2 48356  53.0544 231.8755 0001547  76.5840 283.5322 15.06403288 78576","PERIOD":"95.592","RCS_SIZE":"LARGE","APOAPSIS":"548.275","RA_OF_ASC_NODE":"231.8755","OBJECT_NAME":"STARLINK-2637","COUNTRY_CODE":"US","OBJECT_TYPE":"PAYLOAD","NORAD_CAT_ID":"48356","REV_AT_EPOCH":"7857","PERIAPSIS":"546.132","CENTER_NAME":"EARTH","MEAN_ANOMALY":"283.5322","GP_ID":"213990346","ECCENTRICITY":"0.00015470","CLASSIFICATION_TYPE":"U","MEAN_MOTION_DOT":"-0.00001416","MEAN_MOTION":"15.06403288","INCLINATION":"53.0544","TLE_LINE1":"1 48356U 21038D   22275.50189975 -.00001416  00000-0 -76193-4 0  9996","ARG_OF_PERICENTER":"76.5840","FILE":"3589279","ELEMENT_SET_NO":"999","EPHEMERIS_TYPE":"0","EPOCH":"2022-10-02T12:02:44.138400","BSTAR":"-0.00007619300000"},{"GP_ID":"214015970","PERIAPSIS":"546.078","REV_AT_EPOCH":"7794","MEAN_ANOMALY":"319.0801","CENTER_NAME":"EARTH","TLE_LINE1":"1 48357U 21038E   22275.16921570  .00016928  00000-0  11523-2 0  9990","ARG_OF_PERICENTER":"41.0308","FILE":"3589474","ELEMENT_SET_NO":"999","EPHEMERIS_TYPE":"0","EPOCH":"2022-10-02T04:03:40.236480","BSTAR":"0.00115230000000","ECCENTRICITY":"0.00015960","CLASSIFICATION_TYPE":"U","MEAN_MOTION_DOT":"0.00016928","MEAN_MOTION":"15.06409779","INCLINATION":"53.0538","REF_FRAME":"TEME","SITE":"AFETR","OBJECT_ID":"2021-038E","TLE_LINE2":"2 48357  53.0538 233.4177 0001596  41.0308 319.0801 15.06409779 77944","PERIOD":"95.592","MEAN_ELEMENT_THEORY":"SGP4","SEMIMAJOR_AXIS":"6925.319","DECAY_DATE":null,"MEAN_MOTION_DDOT":"0.0000000000000","LAUNCH_DATE":"2021-05-04","TIME_SYSTEM":"UTC","OBJECT_TYPE":"PAYLOAD","NORAD_CAT_ID":"48357","APOAPSIS":"548.289","RCS_SIZE":"LARGE","COUNTRY_CODE":"US","RA_OF_ASC_NODE":"233.4177","OBJECT_NAME":"STARLINK-2636"},{"GP_ID":"214016220","CENTER_NAME":"EARTH","MEAN_ANOMALY":"293.7372","REV_AT_EPOCH":"7795","PERIAPSIS":"546.008","ELEMENT_SET_NO":"999","EPHEMERIS_TYPE":"0","EPOCH":"2022-10-02T07:05:30.168384","BSTAR":"0.00016174000000","TLE_LINE1":"1 48358U 21038F   22275.29548806  .00002129  00000-0  16174-3 0  9998","ARG_OF_PERICENTER":"66.3798","FILE":"3589474","CLASSIFICATION_TYPE":"U","MEAN_MOTION_DOT":"0.00002129","INCLINATION":"53.0557","MEAN_MOTION":"15.06404037","ECCENTRICITY":"0.00017230","TLE_LINE2":"2 48358  53.0557 232.8145 0001723  66.3798 293.7372 15.06404037 77953","PERIOD":"95.592","SITE":"AFETR","REF_FRAME":"TEME","OBJECT_ID":"2021-038F","LAUNCH_DATE":"2021-05-04","TIME_SYSTEM":"UTC","SEMIMAJOR_AXIS":"6925.336","MEAN_ELEMENT_THEORY":"SGP4","MEAN_MOTION_DDOT":"0.0000000000000","DECAY_DATE":null,"NORAD_CAT_ID":"48358","OBJECT_TYPE":"PAYLOAD","RCS_SIZE":"LARGE","APOAPSIS":"548.394","RA_OF_ASC_NODE":"232.8145","OBJECT_NAME":"STARLINK-2624","COUNTRY_CODE":"US"},{"APOAPSIS":"548.250","RCS_SIZE":"LARGE","COUNTRY_CODE":"US","OBJECT_NAME":"STARLINK-2628","RA_OF_ASC_NODE":"233.4340","OBJECT_TYPE":"PAYLOAD","NORAD_CAT_ID":"48359","MEAN_ELEMENT_THEORY":"SGP4","SEMIMAJOR_AXIS":"6925.399","DECAY_DATE":null,"MEAN_MOTION_DDOT":"0.0000000000000","LAUNCH_DATE":"2021-05-04","TIME_SYSTEM":"UTC","REF_FRAME":"TEME","SITE":"AFETR","OBJECT_ID":"2021-038G","TLE_LINE2":"2 48359  53.0535 233.4340 0001424  75.5735 284.5412 15.06383616 77935","PERIOD":"95.593","ECCENTRICITY":"0.00014240","CLASSIFICATION_TYPE":"U","MEAN_MOTION_DOT":"-0.00001941","MEAN_MOTION":"15.06383616","INCLINATION":"53.0535","ARG_OF_PERICENTER":"75.5735","TLE_LINE1":"1 48359U 21038G   22275.15910415 -.00001941  00000-0 -11149-3 0  9993","FILE":"3589474","EPHEMERIS_TYPE":"0","ELEMENT_SET_NO":"999","EPOCH":"2022-10-02T03:49:06.598560","BSTAR":"-0.00011149000000","PERIAPSIS":"546.278","REV_AT_EPOCH":"7793","MEAN_ANOMALY":"284.5412","CENTER_NAME":"EARTH","GP_ID":"214016466"},{"ECCENTRICITY":"0.00013820","INCLINATION":"53.0542","MEAN_MOTION":"15.06398227","MEAN_MOTION_DOT":"-0.00000330","CLASSIFICATION_TYPE":"U","FILE":"3589751","ARG_OF_PERICENTER":"82.6228","TLE_LINE1":"1 48360U 21038H   22275.81889101 -.00000330  00000-0 -32474-5 0  9992","BSTAR":"-0.00000324740000","ELEMENT_SET_NO":"999","EPOCH":"2022-10-02T19:39:12.183264","EPHEMERIS_TYPE":"0","REV_AT_EPOCH":"7803","PERIAPSIS":"546.262","CENTER_NAME":"EARTH","MEAN_ANOMALY":"277.4918","GP_ID":"214048746","OBJECT_NAME":"STARLINK-2622","RA_OF_ASC_NODE":"230.4740","COUNTRY_CODE":"US","RCS_SIZE":"LARGE","APOAPSIS":"548.176","OBJECT_TYPE":"PAYLOAD","NORAD_CAT_ID":"48360","MEAN_MOTION_DDOT":"0.0000000000000","DECAY_DATE":null,"SEMIMAJOR_AXIS":"6925.354","MEAN_ELEMENT_THEORY":"SGP4","TIME_SYSTEM":"UTC","LAUNCH_DATE":"2021-05-04","OBJECT_ID":"2021-038H","SITE":"AFETR","REF_FRAME":"TEME","PERIOD":"95.592","TLE_LINE2":"2 48360  53.0542 230.4740 0001382  82.6228 277.4918 15.06398227 78033"},{"OBJECT_TYPE":"PAYLOAD","NORAD_CAT_ID":"48361","OBJECT_NAME":"STARLINK-2591","RA_OF_ASC_NODE":"230.4879","COUNTRY_CODE":"US","RCS_SIZE":"LARGE","APOAPSIS":"548.119","OBJECT_ID":"2021-038J","SITE":"AFETR","REF_FRAME":"TEME","PERIOD":"95.592","TLE_LINE2":"2 48361  53.0550 230.4879 0001347  86.2374 273.8769 15.06408935 78031","MEAN_MOTION_DDOT":"0.0000000000000","DECAY_DATE":null,"SEMIMAJOR_AXIS":"6925.321","MEAN_ELEMENT_THEORY":"SGP4","TIME_SYSTEM":"UTC","LAUNCH_DATE":"2021-05-04","FILE":"3589751","ARG_OF_PERICENTER":"86.2374","TLE_LINE1":"1 48361U 21038J   22275.81519948  .00006243  00000-0  43750-3 0  9996","BSTAR":"0.00043750000000","EPOCH":"2022-10-02T19:33:53.235072","ELEMENT_SET_NO":"999","EPHEMERIS_TYPE":"0","ECCENTRICITY":"0.00013470","INCLINATION":"53.0550","MEAN_MOTION":"15.06408935","CLASSIFICATION_TYPE":"U","MEAN_MOTION_DOT":"0.00006243","GP_ID":"214047513","REV_AT_EPOCH":"7803","PERIAPSIS":"546.253","CENTER_NAME":"EARTH","MEAN_ANOMALY":"273.8769"},{"CENTER_NAME":"EARTH","MEAN_ANOMALY":"281.4463","REV_AT_EPOCH":"7804","PERIAPSIS":"546.139","GP_ID":"214047762","MEAN_MOTION_DOT":"0.00000885","CLASSIFICATION_TYPE":"U","INCLINATION":"53.0525","MEAN_MOTION":"15.06404811","ECCENTRICITY":"0.00015310","EPHEMERIS_TYPE":"0","ELEMENT_SET_NO":"999","EPOCH":"2022-10-02T20:21:40.928832","BSTAR":"0.00007826100000","TLE_LINE1":"1 48362U 21038K   22275.84839038  .00000885  00000-0  78261-4 0  9997","ARG_OF_PERICENTER":"78.6698","FILE":"3589751","LAUNCH_DATE":"2021-05-04","TIME_SYSTEM":"UTC","SEMIMAJOR_AXIS":"6925.334","MEAN_ELEMENT_THEORY":"SGP4","MEAN_MOTION_DDOT":"0.0000000000000","DECAY_DATE":null,"TLE_LINE2":"2 48362  53.0525 230.4101 0001531  78.6698 281.4463 15.06404811 78047","PERIOD":"95.592","SITE":"AFETR","REF_FRAME":"TEME","OBJECT_ID":"2021-038K","RCS_SIZE":"LARGE","APOAPSIS":"548.259","OBJECT_NAME":"STARLINK-2578","RA_OF_ASC_NODE":"230.4101","COUNTRY_CODE":"US","NORAD_CAT_ID":"48362","OBJECT_TYPE":"PAYLOAD"}];
